CCSDS_OMM_VERS = 2.0
CREATION_DATE  = 
ORIGINATOR     = 

OBJECT_NAME    = STARLINK-36959
OBJECT_ID      = 2026-041W
CENTER_NAME    = EARTH
REF_FRAME      = TEME
TIME_SYSTEM    = UTC
MEAN_ELEMENT_THEORY = SGP/SGP4

EPOCH          = 2026-03-31T01:33:59.304672
MEAN_MOTION    = 15.75316910
ECCENTRICITY   = .00008395
INCLINATION    = 53.1569
RA_OF_ASC_NODE = 315.4313
ARG_OF_PERICENTER = 80.4138
MEAN_ANOMALY   = 279.6978

EPHEMERIS_TYPE = 0
CLASSIFICATION_TYPE = U
NORAD_CAT_ID   = 68060
ELEMENT_SET_NO = 999
REV_AT_EPOCH   = 459
BSTAR          = .11637173E-2
MEAN_MOTION_DOT = .182258E-2
MEAN_MOTION_DDOT = 0

CCSDS_OMM_VERS = 2.0
CREATION_DATE  = 
ORIGINATOR     = 

OBJECT_NAME    = STARLINK-36915
OBJECT_ID      = 2026-041X
CENTER_NAME    = EARTH
REF_FRAME      = TEME
TIME_SYSTEM    = UTC
MEAN_ELEMENT_THEORY = SGP/SGP4

EPOCH          = 2026-03-31T01:07:50.826720
MEAN_MOTION    = 15.75323877
ECCENTRICITY   = .00010809
INCLINATION    = 53.1579
RA_OF_ASC_NODE = 315.3113
ARG_OF_PERICENTER = 76.9214
MEAN_ANOMALY   = 283.1927

EPHEMERIS_TYPE = 0
CLASSIFICATION_TYPE = U
NORAD_CAT_ID   = 68061
ELEMENT_SET_NO = 999
REV_AT_EPOCH   = 459
BSTAR          = .15906187E-2
MEAN_MOTION_DOT = .251502E-2
MEAN_MOTION_DDOT = 0

CCSDS_OMM_VERS = 2.0
CREATION_DATE  = 
ORIGINATOR     = 

OBJECT_NAME    = STARLINK-36952
OBJECT_ID      = 2026-041Y
CENTER_NAME    = EARTH
REF_FRAME      = TEME
TIME_SYSTEM    = UTC
MEAN_ELEMENT_THEORY = SGP/SGP4

EPOCH          = 2026-03-31T04:42:46.467360
MEAN_MOTION    = 15.75325327
ECCENTRICITY   = .0000702
INCLINATION    = 53.1582
RA_OF_ASC_NODE = 314.8297
ARG_OF_PERICENTER = 92.4075
MEAN_ANOMALY   = 267.7026

EPHEMERIS_TYPE = 0
CLASSIFICATION_TYPE = U
NORAD_CAT_ID   = 68062
ELEMENT_SET_NO = 999
REV_AT_EPOCH   = 461
BSTAR          = .14837628E-2
MEAN_MOTION_DOT = .234093E-2
MEAN_MOTION_DDOT = 0

CCSDS_OMM_VERS = 2.0
CREATION_DATE  = 
ORIGINATOR     = 

OBJECT_NAME    = STARLINK-37000
OBJECT_ID      = 2026-041Z
CENTER_NAME    = EARTH
REF_FRAME      = TEME
TIME_SYSTEM    = UTC
MEAN_ELEMENT_THEORY = SGP/SGP4

EPOCH          = 2026-03-31T05:48:28.109664
MEAN_MOTION    = 15.75326501
ECCENTRICITY   = .00004209
INCLINATION    = 53.1583
RA_OF_ASC_NODE = 314.3946
ARG_OF_PERICENTER = 54.7370
MEAN_ANOMALY   = 305.3690

EPHEMERIS_TYPE = 0
CLASSIFICATION_TYPE = U
NORAD_CAT_ID   = 68063
ELEMENT_SET_NO = 999
REV_AT_EPOCH   = 462
BSTAR          = .1596878E-2
MEAN_MOTION_DOT = .252563E-2
MEAN_MOTION_DDOT = 0

CCSDS_OMM_VERS = 2.0
CREATION_DATE  = 
ORIGINATOR     = 

OBJECT_NAME    = STARLINK-36996
OBJECT_ID      = 2026-041AA
CENTER_NAME    = EARTH
REF_FRAME      = TEME
TIME_SYSTEM    = UTC
MEAN_ELEMENT_THEORY = SGP/SGP4

EPOCH          = 2026-03-31T02:13:03.753120
MEAN_MOTION    = 15.75312118
ECCENTRICITY   = .00009087
INCLINATION    = 53.1584
RA_OF_ASC_NODE = 314.8740
ARG_OF_PERICENTER = 106.7800
MEAN_ANOMALY   = 253.3320

EPHEMERIS_TYPE = 0
CLASSIFICATION_TYPE = U
NORAD_CAT_ID   = 68064
ELEMENT_SET_NO = 999
REV_AT_EPOCH   = 460
BSTAR          = .11678155E-2
MEAN_MOTION_DOT = .182877E-2
MEAN_MOTION_DDOT = 0

CCSDS_OMM_VERS = 2.0
CREATION_DATE  = 
ORIGINATOR     = 

OBJECT_NAME    = STARLINK-36836
OBJECT_ID      = 2026-041AB
CENTER_NAME    = EARTH
REF_FRAME      = TEME
TIME_SYSTEM    = UTC
MEAN_ELEMENT_THEORY = SGP/SGP4

EPOCH          = 2026-03-31T00:00:02.000160
MEAN_MOTION    = 15.75241335
ECCENTRICITY   = .00011091
INCLINATION    = 53.1579
RA_OF_ASC_NODE = 315.3316
ARG_OF_PERICENTER = 93.9796
MEAN_ANOMALY   = 103.8035

EPHEMERIS_TYPE = 0
CLASSIFICATION_TYPE = U
NORAD_CAT_ID   = 68065
ELEMENT_SET_NO = 999
REV_AT_EPOCH   = 580
BSTAR          = -.37299805E-3
MEAN_MOTION_DOT = -.57434E-3
MEAN_MOTION_DDOT = 0

CCSDS_OMM_VERS = 2.0
CREATION_DATE  = 
ORIGINATOR     = 

OBJECT_NAME    = STARLINK-36976
OBJECT_ID      = 2026-041AC
CENTER_NAME    = EARTH
REF_FRAME      = TEME
TIME_SYSTEM    = UTC
MEAN_ELEMENT_THEORY = SGP/SGP4

EPOCH          = 2026-03-31T01:27:26.997696
MEAN_MOTION    = 15.75465766
ECCENTRICITY   = .00011746
INCLINATION    = 53.1565
RA_OF_ASC_NODE = 315.4003
ARG_OF_PERICENTER = 284.2660
MEAN_ANOMALY   = 75.8230

EPHEMERIS_TYPE = 0
CLASSIFICATION_TYPE = U
NORAD_CAT_ID   = 68066
ELEMENT_SET_NO = 999
REV_AT_EPOCH   = 459
BSTAR          = .26243596E-2
MEAN_MOTION_DOT = .426828E-2
MEAN_MOTION_DDOT = 0

CCSDS_OMM_VERS = 2.0
CREATION_DATE  = 
ORIGINATOR     = 

OBJECT_NAME    = STARLINK-36929
OBJECT_ID      = 2026-041AD
CENTER_NAME    = EARTH
REF_FRAME      = TEME
TIME_SYSTEM    = UTC
MEAN_ELEMENT_THEORY = SGP/SGP4

EPOCH          = 2026-03-31T01:33:31.247136
MEAN_MOTION    = 15.75321329
ECCENTRICITY   = .00020461
INCLINATION    = 53.1572
RA_OF_ASC_NODE = 315.4285
ARG_OF_PERICENTER = 189.3685
MEAN_ANOMALY   = 170.7298

EPHEMERIS_TYPE = 0
CLASSIFICATION_TYPE = U
NORAD_CAT_ID   = 68067
ELEMENT_SET_NO = 999
REV_AT_EPOCH   = 459
BSTAR          = .18047597E-2
MEAN_MOTION_DOT = .286617E-2
MEAN_MOTION_DDOT = 0

CCSDS_OMM_VERS = 2.0
CREATION_DATE  = 
ORIGINATOR     = 

OBJECT_NAME    = STARLINK-36990
OBJECT_ID      = 2026-041AE
CENTER_NAME    = EARTH
REF_FRAME      = TEME
TIME_SYSTEM    = UTC
MEAN_ELEMENT_THEORY = SGP/SGP4

EPOCH          = 2026-03-31T04:45:15.541920
MEAN_MOTION    = 15.81018019
ECCENTRICITY   = .00004674
INCLINATION    = 53.1573
RA_OF_ASC_NODE = 314.1019
ARG_OF_PERICENTER = 39.8947
MEAN_ANOMALY   = 320.2110

EPHEMERIS_TYPE = 0
CLASSIFICATION_TYPE = U
NORAD_CAT_ID   = 68068
ELEMENT_SET_NO = 999
REV_AT_EPOCH   = 462
BSTAR          = .17439396E-2
MEAN_MOTION_DOT = .360694E-2
MEAN_MOTION_DDOT = 0

CCSDS_OMM_VERS = 2.0
CREATION_DATE  = 
ORIGINATOR     = 

OBJECT_NAME    = STARLINK-36766
OBJECT_ID      = 2026-042A
CENTER_NAME    = EARTH
REF_FRAME      = TEME
TIME_SYSTEM    = UTC
MEAN_ELEMENT_THEORY = SGP/SGP4

EPOCH          = 2026-03-31T06:00:02.000160
MEAN_MOTION    = 15.75173199
ECCENTRICITY   = .00011056
INCLINATION    = 53.1588
RA_OF_ASC_NODE = 86.7890
ARG_OF_PERICENTER = 78.7990
MEAN_ANOMALY   = 226.4105

EPHEMERIS_TYPE = 0
CLASSIFICATION_TYPE = U
NORAD_CAT_ID   = 68069
ELEMENT_SET_NO = 999
REV_AT_EPOCH   = 550
BSTAR          = .77692692E-3
MEAN_MOTION_DOT = .119808E-2
MEAN_MOTION_DDOT = 0

CCSDS_OMM_VERS = 2.0
CREATION_DATE  = 
ORIGINATOR     = 

OBJECT_NAME    = STARLINK-36823
OBJECT_ID      = 2026-042B
CENTER_NAME    = EARTH
REF_FRAME      = TEME
TIME_SYSTEM    = UTC
MEAN_ELEMENT_THEORY = SGP/SGP4

EPOCH          = 2026-03-31T06:04:46.567200
MEAN_MOTION    = 15.80882877
ECCENTRICITY   = .00014397
INCLINATION    = 53.1567
RA_OF_ASC_NODE = 86.6994
ARG_OF_PERICENTER = 125.4640
MEAN_ANOMALY   = 234.6518

EPHEMERIS_TYPE = 0
CLASSIFICATION_TYPE = U
NORAD_CAT_ID   = 68070
ELEMENT_SET_NO = 999
REV_AT_EPOCH   = 549
BSTAR          = .19380758E-2
MEAN_MOTION_DOT = .400269E-2
MEAN_MOTION_DDOT = 0

CCSDS_OMM_VERS = 2.0
CREATION_DATE  = 
ORIGINATOR     = 

OBJECT_NAME    = STARLINK-36970
OBJECT_ID      = 2026-042C
CENTER_NAME    = EARTH
REF_FRAME      = TEME
TIME_SYSTEM    = UTC
MEAN_ELEMENT_THEORY = SGP/SGP4

EPOCH          = 2026-03-31T06:34:02.584128
MEAN_MOTION    = 15.75307869
ECCENTRICITY   = .00016802
INCLINATION    = 53.1582
RA_OF_ASC_NODE = 86.8335
ARG_OF_PERICENTER = 116.4507
MEAN_ANOMALY   = 243.6686

EPHEMERIS_TYPE = 0
CLASSIFICATION_TYPE = U
NORAD_CAT_ID   = 68071
ELEMENT_SET_NO = 999
REV_AT_EPOCH   = 549
BSTAR          = .18628422E-2
MEAN_MOTION_DOT = .296019E-2
MEAN_MOTION_DDOT = 0

CCSDS_OMM_VERS = 2.0
CREATION_DATE  = 
ORIGINATOR     = 

OBJECT_NAME    = STARLINK-36972
OBJECT_ID      = 2026-042D
CENTER_NAME    = EARTH
REF_FRAME      = TEME
TIME_SYSTEM    = UTC
MEAN_ELEMENT_THEORY = SGP/SGP4

EPOCH          = 2026-03-31T06:03:47.566368
MEAN_MOTION    = 15.80230643
ECCENTRICITY   = .00009489
INCLINATION    = 53.1574
RA_OF_ASC_NODE = 86.6957
ARG_OF_PERICENTER = 123.4354
MEAN_ANOMALY   = 236.6759

EPHEMERIS_TYPE = 0
CLASSIFICATION_TYPE = U
NORAD_CAT_ID   = 68072
ELEMENT_SET_NO = 999
REV_AT_EPOCH   = 549
BSTAR          = -.30339844E-2
MEAN_MOTION_DOT = -.546663E-2
MEAN_MOTION_DDOT = 0

CCSDS_OMM_VERS = 2.0
CREATION_DATE  = 
ORIGINATOR     = 

OBJECT_NAME    = STARLINK-37074
OBJECT_ID      = 2026-042E
CENTER_NAME    = EARTH
REF_FRAME      = TEME
TIME_SYSTEM    = UTC
MEAN_ELEMENT_THEORY = SGP/SGP4

EPOCH          = 2026-03-31T06:00:02.000160
MEAN_MOTION    = 15.75184881
ECCENTRICITY   = .00009617
INCLINATION    = 53.1575
RA_OF_ASC_NODE = 86.8414
ARG_OF_PERICENTER = 96.2053
MEAN_ANOMALY   = 183.2764

EPHEMERIS_TYPE = 0
CLASSIFICATION_TYPE = U
NORAD_CAT_ID   = 68073
ELEMENT_SET_NO = 999
REV_AT_EPOCH   = 551
BSTAR          = .1319556E-2
MEAN_MOTION_DOT = .20615E-2
MEAN_MOTION_DDOT = 0

CCSDS_OMM_VERS = 2.0
CREATION_DATE  = 
ORIGINATOR     = 

OBJECT_NAME    = STARLINK-37045
OBJECT_ID      = 2026-042F
CENTER_NAME    = EARTH
REF_FRAME      = TEME
TIME_SYSTEM    = UTC
MEAN_ELEMENT_THEORY = SGP/SGP4

EPOCH          = 2026-03-31T06:53:39.542208
MEAN_MOTION    = 15.75265750
ECCENTRICITY   = .00015146
INCLINATION    = 53.1584
RA_OF_ASC_NODE = 86.9249
ARG_OF_PERICENTER = 52.3548
MEAN_ANOMALY   = 307.7610

EPHEMERIS_TYPE = 0
CLASSIFICATION_TYPE = U
NORAD_CAT_ID   = 68074
ELEMENT_SET_NO = 999
REV_AT_EPOCH   = 549
BSTAR          = .1168865E-2
MEAN_MOTION_DOT = .182668E-2
MEAN_MOTION_DDOT = 0

